NORAD_CAT_ID,OBJECT_NAME,OBJECT_TYPE,EPOCH,MEAN_MOTION,ECCENTRICITY,INCLINATION,RA_OF_ASC_NODE,ARG_OF_PERICENTER,MEAN_ANOMALY,BSTAR,MEAN_MOTION_DOT,MEAN_MOTION_DDOT,TLE_LINE0,TLE_LINE1,TLE_LINE2,SEMIMAJOR_AXIS,PERIOD,APOGEE,PERIGEE,DECAYED
53634.0,STARLINK-4592,PAYLOAD,2022-12-14 16:13:09,15.08837277,0.0001571999999999,53.2175,125.7931,49.5784,310.5346,-1.7243e-05,-5.62e-06,0.0,0 STARLINK-4592,1 53634U 22104AY  22348.67580552 -.00000562  00000-0 -17243-4 0  9993,2 53634  53.2175 125.7931 0001572  49.5784 310.5346 15.08837277 17936,6917.889,95.438,540.841,538.6659999999998,0.0
53634.0,STARLINK-4592,PAYLOAD,2022-12-15 12:53:10,15.08839344,0.0001573,53.2174,121.9285,52.0653,308.0481,-2.4911e-05,-6.84e-06,0.0,0 STARLINK-4592,1 53634U 22104AY  22349.53692420 -.00000684  00000-0 -24911-4 0  9992,2 53634  53.2174 121.9285 0001573  52.0653 308.0481 15.08839344 18064,6917.882,95.438,540.836,538.659,0.0
53634.0,STARLINK-4592,PAYLOAD,2022-12-15 14:28:33,15.08838974,0.0001595,53.2174,121.6311,52.8036,307.3102,-2.298300000000001e-05,-6.54e-06,0.0,0 STARLINK-4592,1 53634U 22104AY  22349.60316437 -.00000654  00000-0 -22983-4 0  9995,2 53634  53.2174 121.6311 0001595  52.8036 307.3102 15.08838974 17056,6917.884,95.438,540.852,538.645,0.0
53634.0,STARLINK-4592,PAYLOAD,2022-12-15 19:14:42,15.08842235,0.0001595,53.2166,120.7386,52.6294,307.4844,6.7261e-06,-1.81e-06,0.0,0 STARLINK-4592,1 53634U 22104AY  22349.80188094 -.00000181  00000-0  67261-5 0  9996,2 53634  53.2166 120.7386 0001595  52.6294 307.4844 15.08842235 18109,6917.874,95.437,540.842,538.635,0.0
53634.0,STARLINK-4592,PAYLOAD,2022-12-16 01:36:14,15.08846321,0.0001685,53.2159,119.5492,55.1852,304.9298,8.481e-05,1.062e-05,0.0,0 STARLINK-4592,1 53634U 22104AY  22350.06683482  .00001062  00000-0  84810-4 0  9993,2 53634  53.2159 119.5492 0001685  55.1852 304.9298 15.08846321 17129,6917.861,95.437,540.8919999999998,538.56,0.0
53634.0,STARLINK-4592,PAYLOAD,2022-12-16 12:43:56,15.08836892,0.0001619,53.2164,117.4676,38.0623,322.0484,6.5819e-05,7.6e-06,0.0,0 STARLINK-4592,1 53634U 22104AY  22350.53051891  .00000760  00000-0  65819-4 0  9990,2 53634  53.2164 117.4676 0001619  38.0623 322.0484 15.08836892 17196,6917.89,95.438,540.875,538.635,0.0
53634.0,STARLINK-4592,PAYLOAD,2022-12-16 17:30:06,15.08832703,0.0001635,53.2168,116.5754,47.3216,312.7914,1.1553e-05,-1.04e-06,0.0,0 STARLINK-4592,1 53634U 22104AY  22350.72924403 -.00000104  00000-0  11553-4 0  9998,2 53634  53.2168 116.5754 0001635  47.3216 312.7914 15.08832703 18244,6917.903,95.438,540.899,538.637,0.0
53634.0,STARLINK-4592,PAYLOAD,2022-12-17 01:27:02,15.08829748,0.0001698,53.2169,115.0886,49.8505,310.2636,4.0483e-05,3.56e-06,0.0,0 STARLINK-4592,1 53634U 22104AY  22351.06044588  .00000356  00000-0  40483-4 0  9995,2 53634  53.2169 115.0886 0001698  49.8505 310.2636 15.08829748 17273,6917.9119999999975,95.438,540.951,538.602,0.0
53634.0,STARLINK-4592,PAYLOAD,2022-12-17 12:34:44,15.08830662,0.000166,53.2181,113.0074,52.0575,308.0567,-6.0599e-05,-1.252e-05,0.0,0 STARLINK-4592,1 53634U 22104AY  22351.52413026 -.00001252  00000-0 -60599-4 0  9991,2 53634  53.2181 113.0074 0001660  52.0575 308.0567 15.08830662 18362,6917.909000000002,95.438,540.922,538.626,0.0
53634.0,STARLINK-4592,PAYLOAD,2022-12-17 17:20:53,15.08836367,0.0001717,53.2174,112.1152,50.7363,309.3781,-1.5534e-05,-5.35e-06,0.0,0 STARLINK-4592,1 53634U 22104AY  22351.72284576 -.00000535  00000-0 -15534-4 0  9991,2 53634  53.2174 112.1152 0001717  50.7363 309.3781 15.08836367 18397,6917.891,95.438,540.944,538.569,0.0
53634.0,STARLINK-4592,PAYLOAD,2022-12-18 07:39:22,15.08840556,0.00017,53.2167,109.4392,45.6341,314.4790000000001,-6.4301e-05,-1.311e-05,0.0,0 STARLINK-4592,1 53634U 22104AY  22352.31900475 -.00001311  00000-0 -64301-4 0  9999,2 53634  53.2167 109.4392 0001700  45.6341 314.4790 15.08840556 17464,6917.879,95.438,540.92,538.568,0.0
53634.0,STARLINK-4592,PAYLOAD,2022-12-18 17:11:40,15.08840109,0.0001756,53.2165,107.6539,47.0245,313.0894,-1.9675e-06,-3.19e-06,0.0,0 STARLINK-4592,1 53634U 22104AY  22352.71644356 -.00000319  00000-0 -19675-5 0  9998,2 53634  53.2165 107.6539 0001756  47.0245 313.0894 15.08840109 18549,6917.88,95.438,540.96,538.53,0.0
53634.0,STARLINK-4592,PAYLOAD,2022-12-19 01:08:35,15.08842449,0.0001774,53.217,106.1672,48.1581,311.9562,0.00013489,1.859e-05,0.0,0 STARLINK-4592,1 53634U 22104AY  22353.04763691  .00001859  00000-0  13489-3 0  9992,2 53634  53.2170 106.1672 0001774  48.1581 311.9562 15.08842449 17572,6917.873000000001,95.437,540.965,538.511,0.0
53634.0,STARLINK-4592,PAYLOAD,2022-12-19 07:30:08,15.08837609,0.0001746,53.2171,104.9784,51.3436,308.7712,0.00010015,1.306e-05,0.0,0 STARLINK-4592,1 53634U 22104AY  22353.31260047  .00001306  00000-0  10015-3 0  9998,2 53634  53.2171 104.9784 0001746  51.3436 308.7712 15.08837609 18638,6917.888000000001,95.438,540.961,538.545,0.0
53634.0,STARLINK-4592,PAYLOAD,2022-12-20 13:42:27,15.08846171,0.0001742,53.2167,99.3266,47.8841,312.2299,1.7077e-05,-1.6e-07,0.0,0 STARLINK-4592,1 53634U 22104AY  22354.57115359 -.00000016  00000-0  17077-4 0  9996,2 53634  53.2167  99.3266 0001742  47.8841 312.2299 15.08846171 17803,6917.861999999999,95.437,540.932,538.521,0.0
53634.0,STARLINK-4592,PAYLOAD,2022-12-21 10:22:30,15.08825198,0.0001743,53.2173,95.4618,49.5581,310.5563,-0.00013499,-2.435e-05,0.0,0 STARLINK-4592,1 53634U 22104AY  22355.43229265 -.00002435  00000-0 -13499-3 0  9995,2 53634  53.2173  95.4618 0001743  49.5581 310.5563 15.08825198 17934,6917.926,95.438,540.996,538.585,0.0
53634.0,STARLINK-4592,PAYLOAD,2022-12-22 13:24:03,15.08833687,0.0001817,53.2174,90.407,43.9081,316.2055,-5.2062e-05,-1.116e-05,0.0,0 STARLINK-4592,1 53634U 22104AY  22356.55837030 -.00001116  00000-0 -52062-4 0  9999,2 53634  53.2174  90.4070 0001817  43.9081 316.2055 15.08833687 18108,6917.9,95.438,541.0219999999998,538.508,0.0
53634.0,STARLINK-4592,PAYLOAD,2022-12-22 18:10:12,15.08833446,0.0001844,53.2175,89.5146,41.0874,319.0257,-3.3213e-05,-8.17e-06,0.0,0 STARLINK-4592,1 53634U 22104AY  22356.75709083 -.00000817  00000-0 -33213-4 0  9991,2 53634  53.2175  89.5146 0001844  41.0874 319.0257 15.08833446 19155,6917.9,95.438,541.0409999999998,538.49,0.0
53634.0,STARLINK-4592,PAYLOAD,2022-12-23 13:14:49,15.08909588,0.0001551,53.2178,85.9466,35.1695,324.94,-0.00091965,-0.00014922,0.0,0 STARLINK-4592,1 53634U 22104AY  22357.55196008 -.00014922  00000-0 -91965-3 0  9996,2 53634  53.2178  85.9466 0001551  35.1695 324.9400 15.08909588 18259,6917.668000000002,95.433,540.606,538.46,0.0
53634.0,STARLINK-4592,PAYLOAD,2022-12-23 16:25:37,15.08823849,0.0001892,53.2168,85.353,39.2855,320.8274,9.2028e-05,1.176e-05,0.0,0 STARLINK-4592,1 53634U 22104AY  22357.68445957  .00001176  00000-0  92028-4 0  9997,2 53634  53.2168  85.3530 0001892  39.2855 320.8274 15.08823849 19299,6917.93,95.439,541.104,538.486,0.0
53634.0,STARLINK-4592,PAYLOAD,2022-12-23 22:47:10,15.08826605,0.0001886,53.2171,84.1633,40.4192,319.694,3.1984000000000004e-05,2.21e-06,0.0,0 STARLINK-4592,1 53634U 22104AY  22357.94942224  .00000221  00000-0  31984-4 0  9999,2 53634  53.2171  84.1633 0001886  40.4192 319.6940 15.08826605 18316,6917.920999999999,95.438,541.091,538.482,0.0
53634.0,STARLINK-4592,PAYLOAD,2022-12-24 17:51:47,15.08832304,0.0002002,53.2166,80.5942,39.1042,321.0095,1.9551e-05,2.3e-07,0.0,0 STARLINK-4592,1 53634U 22104AY  22358.74430251  .00000023  00000-0  19551-4 0  9996,2 53634  53.2166  80.5942 0002002  39.1042 321.0095 15.08832304 19450,6917.904,95.438,541.154,538.384,0.0
53634.0,STARLINK-4592,PAYLOAD,2022-12-25 17:42:34,15.08835916,0.0002397,53.2171,76.1346,38.3227,321.7935,-6.892100000000001e-06,-3.98e-06,0.0,0 STARLINK-4592,1 53634U 22104AY  22359.73790491 -.00000398  00000-0 -68921-5 0  9994,2 53634  53.2171  76.1346 0002397  38.3227 321.7935 15.08835916 19607,6917.893,95.438,541.4159999999998,538.1,0.0
53634.0,STARLINK-4592,PAYLOAD,2022-12-25 22:28:44,15.08837469,0.0002095,53.2173,75.2412,39.481,320.6335,-2.6593e-05,-7.11e-06,0.0,0 STARLINK-4592,1 53634U 22104AY  22359.93662353 -.00000711  00000-0 -26593-4 0  9998,2 53634  53.2173  75.2412 0002095  39.4810 320.6335 15.08837469 18615,6917.888000000001,95.438,541.202,538.304,0.0
53634.0,STARLINK-4592,PAYLOAD,2022-12-26 11:11:48,15.08842613,0.0001898,53.2169,72.863,34.7947,325.3169,3.5612e-05,2.79e-06,0.0,0 STARLINK-4592,1 53634U 22104AY  22360.46653727  .00000279  00000-0  35612-4 0  9992,2 53634  53.2169  72.8630 0001898  34.7947 325.3169 15.08842613 18696,6917.871999999999,95.437,541.05,538.424,0.0
53634.0,STARLINK-4592,PAYLOAD,2022-12-26 17:33:21,15.08839018,0.0002341,53.2172,71.6742,37.273,322.8424,6.286000000000001e-06,-1.88e-06,0.0,0 STARLINK-4592,1 53634U 22104AY  22360.73150183 -.00000188  00000-0  62860-5 0  9996,2 53634  53.2172  71.6742 0002341  37.2730 322.8424 15.08839018 19752,6917.8830000000025,95.438,541.368,538.129,0.0
53634.0,STARLINK-4592,PAYLOAD,2022-12-27 14:13:21,15.08853037,0.0001999,53.2174,67.8093,39.254,320.8597,4.2842e-05,3.94e-06,0.0,0 STARLINK-4592,1 53634U 22104AY  22361.59260676  .00000394  00000-0  42842-4 0  9995,2 53634  53.2174  67.8093 0001999  39.2540 320.8597 15.08853037 19889,6917.840999999999,95.437,541.0880000000002,538.323,0.0
53634.0,STARLINK-4592,PAYLOAD,2022-12-27 23:45:39,15.08859297,0.0002435999999999,53.2174,66.0249,33.7563,326.3583,0.00016109,2.278e-05,0.0,0 STARLINK-4592,1 53634U 22104AY  22361.99003531  .00002278  00000-0  16109-3 0  9993,2 53634  53.2174  66.0249 0002436  33.7563 326.3583 15.08859297 18928,6917.821,95.436,541.372,538.001,0.0
53634.0,STARLINK-4592,PAYLOAD,2022-12-28 14:04:07,15.0884863,0.0002316999999999,53.2216,63.3502,4.5569,355.5444,-2.2942e-05,-6.54e-06,0.0,0 STARLINK-4592,1 53634U 22104AY  22362.58620364 -.00000654  00000-0 -22942-4 0  9999,2 53634  53.2216  63.3502 0002317   4.5569 355.5444 15.08848630 19017,6917.854,95.437,541.322,538.116,0.0
